ALOS-4 (DAICHI-4)       
1 60182U 24123A   24262.46288457  .00002076  00000+0  28487-3 0  9995
2 60182  97.9218 357.7806 0001482  94.6832 265.4549 14.79460751 11739
